{
  "norad_id": 45448,
  "name": "ONEWEB-0063",
  "history": [
    {
      "epoch": "2026-04-30T11:43:13.078848Z",
      "apogee_km": 1218.965533720606,
      "perigee_km": 1216.3834135682555,
      "latitude_deg": -5.680558653882875e-06,
      "longitude_deg": -3.690266887532011,
      "height_km": 1220.460740267663,
      "semi_major_axis_km": 7595.81147364443,
      "eccentricity": 0.00016997,
      "inclination_deg": 87.8937,
      "raan_deg": 30.5486,
      "arg_perigee_deg": 85.5516,
      "mean_anomaly_deg": 274.5806,
      "mean_motion_rev_day": 13.11419075
    },
    {
      "epoch": "2026-05-02T05:50:09.450816Z",
      "apogee_km": 1218.9788277164162,
      "perigee_km": 1216.3689071023746,
      "latitude_deg": 7.208082566654229e-05,
      "longitude_deg": 82.49682198226448,
      "height_km": 1220.4710725867096,
      "semi_major_axis_km": 7595.8108674093955,
      "eccentricity": 0.0001718,
      "inclination_deg": 87.8935,
      "raan_deg": 30.2002,
      "arg_perigee_deg": 86.0826,
      "mean_anomaly_deg": 274.0499,
      "mean_motion_rev_day": 13.11419232
    },
    {
      "epoch": "2026-05-03T16:37:37.919136Z",
      "apogee_km": 1218.9769736523285,
      "perigee_km": 1216.376167085833,
      "latitude_deg": 2.976746167950819e-05,
      "longitude_deg": -81.08812684305931,
      "height_km": 1220.48484738507,
      "semi_major_axis_km": 7595.8135703690805,
      "eccentricity": 0.0001712,
      "inclination_deg": 87.894,
      "raan_deg": 29.9127,
      "arg_perigee_deg": 86.5568,
      "mean_anomaly_deg": 273.5756,
      "mean_motion_rev_day": 13.11418532
    },
    {
      "epoch": "2026-05-04T18:15:46.402272Z",
      "apogee_km": 1219.0008732256583,
      "perigee_km": 1216.3590480867424,
      "latitude_deg": 1.2362669847146702e-05,
      "longitude_deg": -106.88899789091722,
      "height_km": 1220.4968028293717,
      "semi_major_axis_km": 7595.8169606562,
      "eccentricity": 0.0001739,
      "inclination_deg": 87.8931,
      "raan_deg": 29.7,
      "arg_perigee_deg": 86.9847,
      "mean_anomaly_deg": 273.148,
      "mean_motion_rev_day": 13.11417654
    },
    {
      "epoch": "2026-05-05T18:04:02.905824Z",
      "apogee_km": 1219.0080209103517,
      "perigee_km": 1216.3555609885525,
      "latitude_deg": 3.3344839609628247e-05,
      "longitude_deg": -105.13208521964799,
      "height_km": 1220.4972037348234,
      "semi_major_axis_km": 7595.818790949452,
      "eccentricity": 0.0001746,
      "inclination_deg": 87.893,
      "raan_deg": 29.5033,
      "arg_perigee_deg": 86.9357,
      "mean_anomaly_deg": 273.1971,
      "mean_motion_rev_day": 13.1141718
    },
    {
      "epoch": "2026-05-06T17:52:20.302752Z",
      "apogee_km": 1219.0926073242854,
      "perigee_km": 1216.3307567434977,
      "latitude_deg": 2.2434134820707903e-06,
      "longitude_deg": -103.37910708315796,
      "height_km": 1220.5337568603488,
      "semi_major_axis_km": 7595.848682033891,
      "eccentricity": 0.0001818,
      "inclination_deg": 87.8932,
      "raan_deg": 29.3064,
      "arg_perigee_deg": 87.3394,
      "mean_anomaly_deg": 272.7942,
      "mean_motion_rev_day": 13.11409439
    }
  ]
}